{
  "type": "FeatureCollection",
  "features": [
    {
      "type": "Feature",
      "properties": {
        "norad_id": 44793,
        "name": "BEIDOU-3 M22 (C44)",
        "group": "beidou",
        "lat": -21.6789944202639,
        "lon": 143.27365015915527,
        "alt_km": 21546.786798901212,
        "timestamp": "2025-12-07T03:52:32.762152+00:00",
        "meta_object_name": "BEIDOU-3 M22 (C44)",
        "meta_object_id": "2019-078A",
        "meta_epoch": "2025-12-05T05:48:12.053952",
        "meta_mean_motion": 1.86231816,
        "meta_eccentricity": 0.00057288,
        "meta_inclination": 54.1154,
        "meta_ra_of_asc_node": 306.6493,
        "meta_arg_of_pericenter": 22.8633,
        "meta_mean_anomaly": 337.1445,
        "meta_ephemeris_type": 0,
        "meta_classification_type": "U",
        "meta_norad_cat_id": 44793,
        "meta_element_set_no": 999,
        "meta_rev_at_epoch": 4103,
        "meta_bstar": 0,
        "meta_mean_motion_dot": -6.9e-07,
        "meta_mean_motion_ddot": 0,
        "tle_line1": "1 44793U 19078A   25339.24180618 -.00000069  00000+0  00000+0 0  9998",
        "tle_line2": "2 44793  54.1154 306.6493 0005728  22.8633 337.1445  1.86231816 41037"
      },
      "geometry": {
        "type": "Point",
        "coordinates": [
          143.27365015915527,
          -21.6789944202639
        ]
      }
    },
    {
      "type": "Feature",
      "properties": {
        "norad_id": 44794,
        "name": "BEIDOU-3 M21 (C43)",
        "group": "beidou",
        "lat": 47.26200468437699,
        "lon": 74.91894387978998,
        "alt_km": 21525.434375229946,
        "timestamp": "2025-12-07T03:52:32.762163+00:00",
        "meta_object_name": "BEIDOU-3 M21 (C43)",
        "meta_object_id": "2019-078B",
        "meta_epoch": "2025-12-05T21:59:25.852416",
        "meta_mean_motion": 1.86227538,
        "meta_eccentricity": 0.00039607,
        "meta_inclination": 54.088,
        "meta_ra_of_asc_node": 306.5908,
        "meta_arg_of_pericenter": 10.7864,
        "meta_mean_anomaly": 349.2048,
        "meta_ephemeris_type": 0,
        "meta_classification_type": "U",
        "meta_norad_cat_id": 44794,
        "meta_element_set_no": 999,
        "meta_rev_at_epoch": 4105,
        "meta_bstar": 0,
        "meta_mean_motion_dot": -6.9e-07,
        "meta_mean_motion_ddot": 0,
        "tle_line1": "1 44794U 19078B   25339.91627144 -.00000069  00000+0  00000+0 0  9993",
        "tle_line2": "2 44794  54.0880 306.5908 0003960  10.7864 349.2048  1.86227538 41052"
      },
      "geometry": {
        "type": "Point",
        "coordinates": [
          74.91894387978998,
          47.26200468437699
        ]
      }
    },
    {
      "type": "Feature",
      "properties": {
        "norad_id": 44864,
        "name": "BEIDOU-3 M19 (C41)",
        "group": "beidou",
        "lat": -39.222571763419474,
        "lon": 36.332556022379215,
        "alt_km": 21488.667728222164,
        "timestamp": "2025-12-07T03:52:32.762175+00:00",
        "meta_object_name": "BEIDOU-3 M19 (C41)",
        "meta_object_id": "2019-090A",
        "meta_epoch": "2025-12-02T22:27:31.551840",
        "meta_mean_motion": 1.86231053,
        "meta_eccentricity": 0.00175607,
        "meta_inclination": 56.3847,
        "meta_ra_of_asc_node": 69.2872,
        "meta_arg_of_pericenter": 284.9296,
        "meta_mean_anomaly": 72.494,
        "meta_ephemeris_type": 0,
        "meta_classification_type": "U",
        "meta_norad_cat_id": 44864,
        "meta_element_set_no": 999,
        "meta_rev_at_epoch": 4057,
        "meta_bstar": 0,
        "meta_mean_motion_dot": -4.9e-07,
        "meta_mean_motion_ddot": 0,
        "tle_line1": "1 44864U 19090A   25336.93578185 -.00000049  00000+0  00000+0 0  9992",
        "tle_line2": "2 44864  56.3847  69.2872 0017560 284.9296  72.4940  1.86231053 40575"
      },
      "geometry": {
        "type": "Point",
        "coordinates": [
          36.332556022379215,
          -39.222571763419474
        ]
      }
    },
    {
      "type": "Feature",
      "properties": {
        "norad_id": 44865,
        "name": "BEIDOU-3 M20 (C42)",
        "group": "beidou",
        "lat": 32.608154773609115,
        "lon": 94.32896990019675,
        "alt_km": 21532.950209772167,
        "timestamp": "2025-12-07T03:52:32.762187+00:00",
        "meta_object_name": "BEIDOU-3 M20 (C42)",
        "meta_object_id": "2019-090B",
        "meta_epoch": "2025-12-03T10:37:23.867040",
        "meta_mean_motion": 1.86231029,
        "meta_eccentricity": 0.00147135,
        "meta_inclination": 56.3867,
        "meta_ra_of_asc_node": 69.3045,
        "meta_arg_of_pericenter": 297.7194,
        "meta_mean_anomaly": 129.1388,
        "meta_ephemeris_type": 0,
        "meta_classification_type": "U",
        "meta_norad_cat_id": 44865,
        "meta_element_set_no": 999,
        "meta_rev_at_epoch": 4057,
        "meta_bstar": 0,
        "meta_mean_motion_dot": -5e-07,
        "meta_mean_motion_ddot": 0,
        "tle_line1": "1 44865U 19090B   25337.44263735 -.00000050  00000+0  00000+0 0  9994",
        "tle_line2": "2 44865  56.3867  69.3045 0014713 297.7194 129.1388  1.86231029 40576"
      },
      "geometry": {
        "type": "Point",
        "coordinates": [
          94.32896990019675,
          32.608154773609115
        ]
      }
    },
    {
      "type": "Feature",
      "properties": {
        "norad_id": 45344,
        "name": "BEIDOU-3 G2 (C60)",
        "group": "beidou",
        "lat": 0.3930593268023089,
        "lon": -145.8033003801024,
        "alt_km": 35790.72673701167,
        "timestamp": "2025-12-07T03:52:32.762198+00:00",
        "meta_object_name": "BEIDOU-3 G2 (C60)",
        "meta_object_id": "2020-017A",
        "meta_epoch": "2025-12-05T15:47:23.962272",
        "meta_mean_motion": 1.00262828,
        "meta_eccentricity": 0.00053913,
        "meta_inclination": 2.4835,
        "meta_ra_of_asc_node": 43.7472,
        "meta_arg_of_pericenter": 266.1366,
        "meta_mean_anomaly": 81.6514,
        "meta_ephemeris_type": 0,
        "meta_classification_type": "U",
        "meta_norad_cat_id": 45344,
        "meta_element_set_no": 999,
        "meta_rev_at_epoch": 2131,
        "meta_bstar": 0,
        "meta_mean_motion_dot": -1.29e-06,
        "meta_mean_motion_ddot": 0,
        "tle_line1": "1 45344U 20017A   25339.65791623 -.00000129  00000+0  00000+0 0  9992",
        "tle_line2": "2 45344   2.4835  43.7472 0005391 266.1366  81.6514  1.00262828 21310"
      },
      "geometry": {
        "type": "Point",
        "coordinates": [
          -145.8033003801024,
          0.3930593268023089
        ]
      }
    },
    {
      "type": "Feature",
      "properties": {
        "norad_id": 45807,
        "name": "BEIDOU-3 G3 (C61)",
        "group": "beidou",
        "lat": 0.03898908080589342,
        "lon": -115.29143834559456,
        "alt_km": 35800.67427279216,
        "timestamp": "2025-12-07T03:52:32.762233+00:00",
        "meta_object_name": "BEIDOU-3 G3 (C61)",
        "meta_object_id": "2020-040A",
        "meta_epoch": "2025-12-06T07:20:33.413856",
        "meta_mean_motion": 1.00265154,
        "meta_eccentricity": 0.00051448,
        "meta_inclination": 1.9748,
        "meta_ra_of_asc_node": 66.5612,
        "meta_arg_of_pericenter": 303.6231,
        "meta_mean_anomaly": 285.7573,
        "meta_ephemeris_type": 0,
        "meta_classification_type": "U",
        "meta_norad_cat_id": 45807,
        "meta_element_set_no": 999,
        "meta_rev_at_epoch": 2013,
        "meta_bstar": 0,
        "meta_mean_motion_dot": -3.46e-06,
        "meta_mean_motion_ddot": 0,
        "tle_line1": "1 45807U 20040A   25340.30594229 -.00000346  00000+0  00000+0 0  9990",
        "tle_line2": "2 45807   1.9748  66.5612 0005144 303.6231 285.7573  1.00265154 20130"
      },
      "geometry": {
        "type": "Point",
        "coordinates": [
          -115.29143834559456,
          0.03898908080589342
        ]
      }
    },
    {
      "type": "Feature",
      "properties": {
        "norad_id": 56564,
        "name": "BEIDOU-3 G4 (C62)",
        "group": "beidou",
        "lat": -0.11814053508781756,
        "lon": -65.585558518538,
        "alt_km": 35792.104723042605,
        "timestamp": "2025-12-07T03:52:32.762256+00:00",
        "meta_object_name": "BEIDOU-3 G4 (C62)",
        "meta_object_id": "2023-066A",
        "meta_epoch": "2025-12-06T13:00:38.692800",
        "meta_mean_motion": 1.00270963,
        "meta_eccentricity": 0.00031605,
        "meta_inclination": 0.829,
        "meta_ra_of_asc_node": 301.5238,
        "meta_arg_of_pericenter": 236.9643,
        "meta_mean_anomaly": 252.3208,
        "meta_ephemeris_type": 0,
        "meta_classification_type": "U",
        "meta_norad_cat_id": 56564,
        "meta_element_set_no": 999,
        "meta_rev_at_epoch": 946,
        "meta_bstar": 0,
        "meta_mean_motion_dot": -1.04e-06,
        "meta_mean_motion_ddot": 0,
        "tle_line1": "1 56564U 23066A   25340.54211450 -.00000104  00000+0  00000+0 0  9993",
        "tle_line2": "2 56564   0.8290 301.5238 0003160 236.9643 252.3208  1.00270963  9461"
      },
      "geometry": {
        "type": "Point",
        "coordinates": [
          -65.585558518538,
          -0.11814053508781756
        ]
      }
    }
  ]
}